NUSAT-1 (FRESCO)        
1 41557U 16033B   22256.22108330  .00015534  00000+0  43672-3 0  9993
2 41557  97.3900 354.1851 0011462  67.0152  16.7770 15.36530705350858
BEESAT-4                
1 41619U 16040W   22256.08904147  .00018407  00000+0  57503-3 0  9994
2 41619  97.2077 304.4608 0010030 154.1272 206.0474 15.33175849334140
CAS-2T & KS-1Q          
1 41847U 16066G   22256.46148988  .00000532  00000+0  90729-4 0  9998
2 41847  98.5432 321.0081 0362431 306.7207  50.1193 14.38718571307000
NAYIF-1 (EO-88)         
1 42017U 17008BX  22256.45697999  .00020729  00000+0  57252-3 0  9998
2 42017  97.2604 321.4046 0003039 291.2267  68.8653 15.37080220310589
ZHUHAI-1 02 (CAS-4B)    
1 42759U 17034B   22256.37230494  .00004048  00000+0  24149-3 0  9999
2 42759  43.0158 207.9011 0008031 124.7060  16.5555 15.12421083289667
ZHUHAI-1 01 (CAS-4A)    
1 42761U 17034D   22256.27219999  .00004173  00000+0  24794-3 0  9993
2 42761  43.0162 207.1772 0008349 125.2405  22.7406 15.12506547289654
MAX VALIER SAT          
1 42778U 17036P   22256.10033133  .00009671  00000+0  35414-3 0  9998
2 42778  97.1976 294.2237 0010924  25.1388 335.0381 15.28169950290281
RADFXSAT (FOX-1B)       
1 43017U 17073E   22256.43383391  .00004008  00000+0  30371-3 0  9992
2 43017  97.6614 147.0096 0245153 259.5564  97.7941 14.81980424260144
FOX-1D (AO-92)          
1 43137U 18004AC  22256.18673137  .00012144  00000+0  40971-3 0  9999
2 43137  97.3625 330.6104 0008541  58.7826 301.4251 15.30814689259763
DIWATA-2B               
1 43678U 18084H   22256.35846766  .00001165  00000+0  11984-3 0  9999
2 43678  97.9831  30.7201 0009988   3.8082 356.3189 14.92297028210962
ES'HAIL 2               
1 43700U 18090A   22256.19424334  .00000130  00000+0  00000+0 0  9991
2 43700   0.0036 208.4905 0002254 359.9104 239.4745  1.00271950 13909
FOX-1CLIFF (AO-95)      
1 43770U 18099N   22256.10914987  .00002825  00000+0  25146-3 0  9991
2 43770  97.6126 320.1693 0013489 346.6035  13.4827 14.96777951206122
ITASAT 1                
1 43786U 18099AE  22256.42947193  .00001872  00000+0  16784-3 0  9997
2 43786  97.6158 321.4461 0014213 338.4125  21.6496 14.96881402206216
JY1SAT (JO-97)          
1 43803U 18099AX  22256.41593568  .00002847  00000+0  24903-3 0  9994
2 43803  97.6131 321.2163 0013844 338.9475  21.1176 14.97461050206232
UWE-4                   
1 43880U 18111E   22256.28530283  .00004316  00000+0  36469-3 0  9997
2 43880  97.6586 161.0477 0012735  35.6624 324.5447 14.98547716202854
NEXUS (FO-99)           
1 43937U 19003F   22256.56626263  .00015361  00000+0  48853-3 0  9998
2 43937  97.1241 286.5679 0019406 192.3142 167.7629 15.32504184203463
PSAT2 (NO-104)          
1 44354U 19036R   22256.42876342  .00097134 -44099-5  73873-3 0  9999
2 44354  28.5244 284.5187 0198825 248.6198 109.3081 15.48869567178291
JAISAT-1                
1 44419U 19038F   22256.44346312  .00009377  00000+0  45611-3 0  9992
2 44419  97.6450 227.3850 0018677 180.4460 179.6760 15.18477012176404
DUCHIFAT-3              
1 44854U 19089C   22256.31502650  .00003954  00000+0  30524-3 0  9998
2 44854  36.9651 299.2799 0008595 220.7236 234.2233 15.01556984151148
CAS-6 (TIANQIN 1)       
1 44881U 19093C   22256.43252299  .00000532  00000+0  74021-4 0  9997
2 44881  97.8887 334.3646 0013595 260.0619  99.9061 14.81809160147802
RS-44 & BREEZE-KM R/B   
1 44909U 19096E   22256.45924336  .00000043  00000+0  12102-3 0  9999
2 44909  82.5252 171.8206 0218277 113.8223 248.5926 12.79714728126760
ORBITAL FACTORY 2 (OF-2)
1 45113U 19071C   22256.52380736  .00038843  00000+0  69406-3 0  9996
2 45113  51.6380 344.7499 0007613 129.9144 230.2515 15.49610203147018
HUSKYSAT-1 (HO-107)     
1 45119U 19071J   22256.53167163  .00034091  00000+0  64277-3 0  9992
2 45119  51.6379 345.5201 0007836 125.9996 234.1719 15.48134725146994
BY70-2                  
1 45857U 20042B   22256.43751391  .00006856  00000+0  89694-3 0  9990
2 45857  97.9517 332.4761 0010611 184.0560 176.0581 14.80696030118474
SALSAT                  
1 46495U 20068K   22256.41083046  .00002422  00000+0  17554-3 0  9991
2 46495  97.7333 197.7754 0015956 345.5900  14.4868 15.04824167107416
BY70-3                  
1 46839U 20079N   22256.26885422  .00029694  00000+0  62125-3 0  9990
2 46839  97.1917 327.3803 0005030  29.1884   5.4907 15.45406398103792
RADFXSAT-2 (AO-109)     
1 47311U 21002C   22256.40617476  .00010547  00000+0  40549-3 0  9994
2 47311  60.6864  30.8589 0031624  36.3201 324.0025 15.26502283 91888
UVSQ-SAT                
1 47438U 21006AB  22256.12637572  .00007116  00000+0  36772-3 0  9997
2 47438  97.4288 313.3481 0010785 337.6983  22.3780 15.16535439 90563
DIY-1 (ARDUIQUBE)       
1 47963U 21022AH  22256.47809237  .00021458  00000+0  11222-2 0  9992
2 47963  97.5212 156.9134 0015722 180.3593 179.7631 15.15771260 80278
XW-3 (CAS-9)            
1 50466U 21131B   22256.50863807  .00000243  00000+0  94068-4 0  9992
2 50466  98.5761 333.7031 0003664 235.5588 124.5253 14.38522959 37576
TEVEL-3                 
1 50988U 22002E   22256.28004524  .00007594  00000+0  40520-3 0  9996
2 50988  97.4744 321.8190 0010841 117.0536 317.1729 15.15377913 36717
TEVEL-8                 
1 50989U 22002F   22256.28775213  .00007737  00000+0  41336-3 0  9992
2 50989  97.4762 321.8547 0010976 116.1381 315.7053 15.15326058 36719
TEVEL-5                 
1 50998U 22002Q   22256.27254648  .00007923  00000+0  41649-3 0  9999
2 50998  97.4741 321.9560 0012281 113.4620 319.8884 15.15878151 36723
TEVEL-6                 
1 50999U 22002R   22256.27194925  .00007935  00000+0  41706-3 0  9998
2 50999  97.4735 321.9525 0012296 113.2885 320.0902 15.15883257 36723
TEVEL-1                 
1 51013U 22002AF  22256.28400204  .00007727  00000+0  41254-3 0  9994
2 51013  97.4751 321.7990 0010856 117.6147 318.2201 15.15352559 36718
TEVEL-7                 
1 51062U 22002CG  22256.28966267  .00007822  00000+0  41793-3 0  9998
2 51062  97.4760 321.8415 0010852 116.1707 316.1932 15.15319370 36719
TEVEL-4                 
1 51063U 22002CH  22256.28994279  .00007812  00000+0  41751-3 0  9996
2 51063  97.4755 321.8367 0010957 116.1823 312.4022 15.15309130 36717
TEVEL-2                 
1 51069U 22002CP  22256.28182045  .00007719  00000+0  41190-3 0  9995
2 51069  97.4746 321.8053 0010837 117.3858 318.7153 15.15372074 36714
YUZGU 9 (RS3S)          
1 53308U 98067TT  22256.32206510  .00049278  00000+0  75470-3 0  9990
2 53308  51.6395 259.2648 0000894 146.0570 214.0478 15.53847247  8404
YUZGU 7 (RS1S)          
1 53309U 98067TU  22256.38443176  .00049857  00000+0  76004-3 0  9995
2 53309  51.6390 258.9298 0000618 215.4509 144.6441 15.53969877  8361
YUZGU 11 (RS5S)         
1 53310U 98067TV  22256.38605389  .00050029  00000+0  76606-3 0  9994
2 53310  51.6395 258.9429 0000399 211.0609 149.0358 15.53845569  8393
YUZGU 12 (RS6S)         
1 53311U 98067TW  22256.38070731  .00054948  00000+0  83115-3 0  9999
2 53311  51.6388 258.9047 0001260 128.3361 231.7743 15.54141941  8419
TSIOLKOVSKY-RYAZAN 1 (*)
1 53312U 98067TX  22256.38263367  .00048783  00000+0  74309-3 0  9994
2 53312  51.6394 258.9187 0000750 231.6596 128.4328 15.54000728  8354
TSIOLKOVSKY-RYAZAN 2 (*)
1 53313U 98067TY  22256.38120352  .00051430  00000+0  78154-3 0  9996
2 53313  51.6393 258.9097 0000317 262.4945  97.6010 15.54043182  8405
YUZGU 10 (RS4S)         
1 53321U 98067TZ  22256.38673551  .00050370  00000+0  77011-3 0  9992
2 53321  51.6397 258.9489 0000640 159.7758 200.3258 15.53884705  8402
RS29S (SXC3-2110 CYCLO*)
1 53373U 22096D   22256.30759439  .00010314  00000+0  41727-3 0  9999
2 53373  97.4328 157.5139 0003763  79.4353  38.1699 15.24893297  5334
RS32S (SXC3-212 MONITO*)
1 53374U 22096E   22256.30107646  .00010482  00000+0  42259-3 0  9994
2 53374  97.4324 157.5135 0003697  70.3664  24.9497 15.25004923  5338
RS34S (SXC3-218 KUZBAS*)
1 53375U 22096F   22256.37398311  .00009065  00000+0  36634-3 0  9998
2 53375  97.4328 157.5854 0003658  69.2803  66.1456 15.24968732  5340
RS23S (SXC3-21 UTMN)    
1 53376U 22096G   22256.30511573  .00008100  00000+0  32750-3 0  9993
2 53376  97.4328 157.5190 0003550  67.0644  54.9366 15.24986958  5338
RS28S (SXC3-214 MIET-A*)
1 53377U 22096H   22256.30342894  .00008738  00000+0  35262-3 0  9990
2 53377  97.4326 157.5185 0003643  65.0129  51.4262 15.25027498  5333
RS26S (KAI-1)           
1 53378U 22096J   22256.30986005  .00007629  00000+0  30833-3 0  9996
2 53378  97.4320 157.5258 0003317  62.3004  92.5834 15.25023266  5339
RS19S (SXC3-219 ISOI)   
1 53381U 22096M   22256.36343810  .00008385  00000+0  33409-3 0  9999
2 53381  97.4328 157.6019 0003823 359.7113 141.5723 15.25467399  5345
RS21S (CUBESX-HSE-2)    
1 53383U 22096P   22256.29258793  .00008447  00000+0  33599-3 0  9997
2 53383  97.4323 157.5347 0003881 358.0423 121.8027 15.25519570  5331
RS30S (SXC3-217 SIREN)  
1 53384U 22096Q   22256.29181007  .00007907  00000+0  31473-3 0  9990
2 53384  97.4331 157.5331 0004015 355.7491 121.8828 15.25521127  5333
RS20S (GEOSCAN-EDELVEIS)
1 53385U 22096R   22256.28750726  .00010688  00000+0  42103-3 0  9992
2 53385  97.4323 157.5383 0004392 354.5098 122.0305 15.25774422  5364
RS33S (SXC3-215 VIZARD) 
1 53386U 22096S   22256.28886833  .00013146  00000+0  51240-3 0  9996
2 53386  97.4333 157.5545 0005018 352.1554 162.1123 15.26071962  5355
